[{"OBJECT_NAME":"QIANFAN-61","OBJECT_ID":"2025-016G","EPOCH":"2026-03-09T21:53:14.897472","MEAN_MOTION":13.51009833,"ECCENTRICITY":0.001688,"INCLINATION":88.9734,"RA_OF_ASC_NODE":94.2582,"ARG_OF_PERICENTER":91.6936,"MEAN_ANOMALY":268.6149,"EPHEMERIS_TYPE":0,"CLASSIFICATION_TYPE":"U","NORAD_CAT_ID":62791,"ELEMENT_SET_NO":999,"REV_AT_EPOCH":5901,"BSTAR":0.0013981772,"MEAN_MOTION_DOT":9.16e-6,"MEAN_MOTION_DDOT":0},{"OBJECT_NAME":"FENGYUN 1C DEB","OBJECT_ID":"1999-025BSQ","EPOCH":"2026-03-07T20:44:53.003040","MEAN_MOTION":13.8715702,"ECCENTRICITY":0.04352502,"INCLINATION":98.4668,"RA_OF_ASC_NODE":30.1314,"ARG_OF_PERICENTER":166.9448,"MEAN_ANOMALY":224.2388,"EPHEMERIS_TYPE":0,"CLASSIFICATION_TYPE":"U","NORAD_CAT_ID":31384,"ELEMENT_SET_NO":999,"REV_AT_EPOCH":94204,"BSTAR":0.0011285618,"MEAN_MOTION_DOT":2.775e-5,"MEAN_MOTION_DDOT":0}]
